start=new Date('2023-05-01T00:00:00.000Z').valueOf();
sats=[{"BSTAR":"0.00037567000000","ECCENTRICITY":"0.00010110","ELEMENT_SET_NO":"999","EPOCH":"2023-04-30T06:11:00.823488","SEMIMAJOR_AXIS":"6925.447","COUNTRY_CODE":"US","EPHEMERIS_TYPE":"0","PERIAPSIS":"546.612","SITE":"AFETR","ARG_OF_PERICENTER":"103.2621","OBJECT_NAME":"STARLINK-2095","RCS_SIZE":"LARGE","PERIOD":"95.594","INCLINATION":"53.0554","MEAN_ANOMALY":"256.8481","REF_FRAME":"TEME","MEAN_MOTION_DOT":"0.00005314","DECAY_DATE":null,"MEAN_ELEMENT_THEORY":"SGP4","RA_OF_ASC_NODE":"80.2537","FILE":"3897442","REV_AT_EPOCH":"12257","TLE_LINE2":"2 47679  53.0554  80.2537 0001011 103.2621 256.8481 15.06367781122575","MEAN_MOTION":"15.06367781","CENTER_NAME":"EARTH","TIME_SYSTEM":"UTC","LAUNCH_DATE":"2021-02-16","TLE_LINE1":"1 47679U 21012BM  23120.25764842  .00005314  00000-0  37567-3 0  9999","CLASSIFICATION_TYPE":"U","NORAD_CAT_ID":"47679","GP_ID":"230974945","OBJECT_TYPE":"PAYLOAD","OBJECT_ID":"2021-012BM","MEAN_MOTION_DDOT":"0.0000000000000","APOAPSIS":"548.012"},{"SITE":"AFETR","PERIAPSIS":"546.396","MEAN_ANOMALY":"253.9920","PERIOD":"95.592","INCLINATION":"53.0536","RCS_SIZE":"LARGE","OBJECT_NAME":"STARLINK-2068","ARG_OF_PERICENTER":"106.1200","SEMIMAJOR_AXIS":"6925.353","EPOCH":"2023-04-30T11:59:25.908288","ELEMENT_SET_NO":"999","ECCENTRICITY":"0.00011870","BSTAR":"0.00138960000000","EPHEMERIS_TYPE":"0","COUNTRY_CODE":"US","TIME_SYSTEM":"UTC","CENTER_NAME":"EARTH","APOAPSIS":"548.040","MEAN_MOTION_DDOT":"0.0000000000000","OBJECT_ID":"2021-017A","OBJECT_TYPE":"PAYLOAD","GP_ID":"230975198","NORAD_CAT_ID":"47722","TLE_LINE1":"1 47722U 21017A   23120.49960542  .00020476  00000-0  13896-2 0  9998","CLASSIFICATION_TYPE":"U","LAUNCH_DATE":"2021-03-04","REF_FRAME":"TEME","MEAN_MOTION":"15.06398646","REV_AT_EPOCH":"12060","TLE_LINE2":"2 47722  53.0536 204.4125 0001187 106.1200 253.9920 15.06398646120608","FILE":"3897442","RA_OF_ASC_NODE":"204.4125","MEAN_ELEMENT_THEORY":"SGP4","DECAY_DATE":null,"MEAN_MOTION_DOT":"0.00020476"},{"TIME_SYSTEM":"UTC","CENTER_NAME":"EARTH","OBJECT_ID":"2021-017B","APOAPSIS":"548.223","MEAN_MOTION_DDOT":"0.0000000000000","GP_ID":"230975449","OBJECT_TYPE":"PAYLOAD","NORAD_CAT_ID":"47723","LAUNCH_DATE":"2021-03-04","TLE_LINE1":"1 47723U 21017B   23120.44103282 -.00000706  00000-0 -28534-4 0  9997","CLASSIFICATION_TYPE":"U","REF_FRAME":"TEME","TLE_LINE2":"2 47723  53.0534 139.4270 0001431  95.0749 265.0403 15.06394038121478","REV_AT_EPOCH":"12147","MEAN_MOTION":"15.06394038","RA_OF_ASC_NODE":"139.4270","FILE":"3897442","MEAN_ELEMENT_THEORY":"SGP4","MEAN_MOTION_DOT":"-0.00000706","DECAY_DATE":null,"SITE":"AFETR","PERIAPSIS":"546.241","PERIOD":"95.593","INCLINATION":"53.0534","MEAN_ANOMALY":"265.0403","RCS_SIZE":"LARGE","ARG_OF_PERICENTER":"95.0749","OBJECT_NAME":"STARLINK-2107","SEMIMAJOR_AXIS":"6925.367","ECCENTRICITY":"0.00014310","EPOCH":"2023-04-30T10:35:05.235648","ELEMENT_SET_NO":"999","BSTAR":"-0.00002853400000","EPHEMERIS_TYPE":"0","COUNTRY_CODE":"US"},{"BSTAR":"-0.00000088556000","SEMIMAJOR_AXIS":"6925.340","ELEMENT_SET_NO":"999","EPOCH":"2023-04-30T13:03:42.122592","ECCENTRICITY":"0.00014080","EPHEMERIS_TYPE":"0","COUNTRY_CODE":"US","PERIAPSIS":"546.230","SITE":"AFETR","OBJECT_NAME":"STARLINK-2116","ARG_OF_PERICENTER":"95.3895","MEAN_ANOMALY":"264.7254","PERIOD":"95.592","INCLINATION":"53.0526","RCS_SIZE":"LARGE","REF_FRAME":"TEME","MEAN_ELEMENT_THEORY":"SGP4","DECAY_DATE":null,"MEAN_MOTION_DOT":"-0.00000295","MEAN_MOTION":"15.06402723","REV_AT_EPOCH":"12145","TLE_LINE2":"2 47724  53.0526 138.9651 0001408  95.3895 264.7254 15.06402723121455","FILE":"3897442","RA_OF_ASC_NODE":"138.9651","CENTER_NAME":"EARTH","TIME_SYSTEM":"UTC","NORAD_CAT_ID":"47724","CLASSIFICATION_TYPE":"U","TLE_LINE1":"1 47724U 21017C   23120.54423753 -.00000295  00000-0 -88556-6 0  9992","LAUNCH_DATE":"2021-03-04","APOAPSIS":"548.180","MEAN_MOTION_DDOT":"0.0000000000000","OBJECT_ID":"2021-017C","OBJECT_TYPE":"PAYLOAD","GP_ID":"230976200"},{"PERIOD":"95.593","INCLINATION":"53.0544","MEAN_ANOMALY":"284.6650","RCS_SIZE":"LARGE","ARG_OF_PERICENTER":"75.4545","OBJECT_NAME":"STARLINK-2125","SITE":"AFETR","PERIAPSIS":"545.978","EPHEMERIS_TYPE":"0","COUNTRY_CODE":"US","SEMIMAJOR_AXIS":"6925.401","ECCENTRICITY":"0.00018590","ELEMENT_SET_NO":"999","EPOCH":"2023-04-30T17:03:55.301472","BSTAR":"0.00092922000000","OBJECT_ID":"2021-017D","MEAN_MOTION_DDOT":"0.0000000000000","APOAPSIS":"548.553","GP_ID":"230983562","OBJECT_TYPE":"PAYLOAD","NORAD_CAT_ID":"47725","CLASSIFICATION_TYPE":"U","TLE_LINE1":"1 47725U 21017D   23120.71105673  .00013580  00000-0  92922-3 0  9998","LAUNCH_DATE":"2021-03-04","TIME_SYSTEM":"UTC","CENTER_NAME":"EARTH","REV_AT_EPOCH":"11988","TLE_LINE2":"2 47725  53.0544 208.2213 0001859  75.4545 284.6650 15.06383011119885","MEAN_MOTION":"15.06383011","RA_OF_ASC_NODE":"208.2213","FILE":"3897582","MEAN_ELEMENT_THEORY":"SGP4","MEAN_MOTION_DOT":"0.00013580","DECAY_DATE":null,"REF_FRAME":"TEME"},{"PERIAPSIS":"546.415","SITE":"AFETR","OBJECT_NAME":"STARLINK-2126","ARG_OF_PERICENTER":"108.9379","MEAN_ANOMALY":"251.1737","PERIOD":"95.592","INCLINATION":"53.0524","RCS_SIZE":"MEDIUM","BSTAR":"0.00124250000000","SEMIMAJOR_AXIS":"6925.365","EPOCH":"2023-04-30T15:07:07.777632","ELEMENT_SET_NO":"999","ECCENTRICITY":"0.00011770","EPHEMERIS_TYPE":"0","COUNTRY_CODE":"US","CENTER_NAME":"EARTH","TIME_SYSTEM":"UTC","NORAD_CAT_ID":"47726","CLASSIFICATION_TYPE":"U","TLE_LINE1":"1 47726U 21017E   23120.62995113  .00018271  00000-0  12425-2 0  9996","LAUNCH_DATE":"2021-03-04","MEAN_MOTION_DDOT":"0.0000000000000","APOAPSIS":"548.045","OBJECT_ID":"2021-017E","OBJECT_TYPE":"PAYLOAD","GP_ID":"230952747","REF_FRAME":"TEME","MEAN_ELEMENT_THEORY":"SGP4","DECAY_DATE":null,"MEAN_MOTION_DOT":"0.00018271","MEAN_MOTION":"15.06394591","REV_AT_EPOCH":"11987","TLE_LINE2":"2 47726  53.0524 208.5802 0001177 108.9379 251.1737 15.06394591119870","FILE":"3897399","RA_OF_ASC_NODE":"208.5802"},{"FILE":"3897442","RA_OF_ASC_NODE":"129.0983","MEAN_MOTION":"15.06399385","REV_AT_EPOCH":"12163","TLE_LINE2":"2 47727  53.0521 129.0983 0001139  94.5265 265.5854 15.06399385121639","DECAY_DATE":null,"MEAN_MOTION_DOT":"-0.00000004","MEAN_ELEMENT_THEORY":"SGP4","REF_FRAME":"TEME","OBJECT_TYPE":"PAYLOAD","GP_ID":"230975950","APOAPSIS":"548.004","MEAN_MOTION_DDOT":"0.0000000000000","OBJECT_ID":"2021-017F","TLE_LINE1":"1 47727U 21017F   23120.51472954 -.00000004  00000-0  18639-4 0  9999","LAUNCH_DATE":"2021-03-04","CLASSIFICATION_TYPE":"U","NORAD_CAT_ID":"47727","CENTER_NAME":"EARTH","TIME_SYSTEM":"UTC","COUNTRY_CODE":"US","EPHEMERIS_TYPE":"0","EPOCH":"2023-04-30T12:21:12.632256","ELEMENT_SET_NO":"999","ECCENTRICITY":"0.00011390","SEMIMAJOR_AXIS":"6925.350","BSTAR":"0.00001863900000","RCS_SIZE":"LARGE","MEAN_ANOMALY":"265.5854","PERIOD":"95.592","INCLINATION":"53.0521","OBJECT_NAME":"STARLINK-2129","ARG_OF_PERICENTER":"94.5265","SITE":"AFETR","PERIAPSIS":"546.427"},{"MEAN_ANOMALY":"276.4603","PERIOD":"95.593","INCLINATION":"53.0543","RCS_SIZE":"LARGE","OBJECT_NAME":"STARLINK-2131","ARG_OF_PERICENTER":"83.6544","SITE":"AFETR","PERIAPSIS":"546.275","EPHEMERIS_TYPE":"0","COUNTRY_CODE":"US","SEMIMAJOR_AXIS":"6925.375","EPOCH":"2023-04-30T12:54:26.680320","ELEMENT_SET_NO":"999","ECCENTRICITY":"0.00013930","BSTAR":"0.00021265000000","APOAPSIS":"548.205","MEAN_MOTION_DDOT":"0.0000000000000","OBJECT_ID":"2021-017G","OBJECT_TYPE":"PAYLOAD","GP_ID":"230975700","NORAD_CAT_ID":"47728","CLASSIFICATION_TYPE":"U","TLE_LINE1":"1 47728U 21017G   23120.53780880  .00002887  00000-0  21265-3 0  9990","LAUNCH_DATE":"2021-03-04","CENTER_NAME":"EARTH","TIME_SYSTEM":"UTC","MEAN_MOTION":"15.06391437","TLE_LINE2":"2 47728  53.0543 208.9985 0001393  83.6544 276.4603 15.06391437120546","REV_AT_EPOCH":"12054","FILE":"3897442","RA_OF_ASC_NODE":"208.9985","MEAN_ELEMENT_THEORY":"SGP4","DECAY_DATE":null,"MEAN_MOTION_DOT":"0.00002887","REF_FRAME":"TEME"},{"TIME_SYSTEM":"UTC","CENTER_NAME":"EARTH","NORAD_CAT_ID":"47729","CLASSIFICATION_TYPE":"U","TLE_LINE1":"1 47729U 21017H   23120.36781501  .00002193  00000-0  16604-3 0  9994","LAUNCH_DATE":"2021-03-04","OBJECT_ID":"2021-017H","MEAN_MOTION_DDOT":"0.0000000000000","APOAPSIS":"548.272","GP_ID":"230974949","OBJECT_TYPE":"PAYLOAD","REF_FRAME":"TEME","MEAN_ELEMENT_THEORY":"SGP4","MEAN_MOTION_DOT":"0.00002193","DECAY_DATE":null,"REV_AT_EPOCH":"12122","TLE_LINE2":"2 47729  53.0517 154.9638 0001538  77.5676 282.5485 15.06402195121228","MEAN_MOTION":"15.06402195","RA_OF_ASC_NODE":"154.9638","FILE":"3897442","PERIAPSIS":"546.142","SITE":"AFETR","ARG_OF_PERICENTER":"77.5676","OBJECT_NAME":"STARLINK-2132","PERIOD":"95.592","INCLINATION":"53.0517","MEAN_ANOMALY":"282.5485","RCS_SIZE":"LARGE","BSTAR":"0.00016604000000","SEMIMAJOR_AXIS":"6925.342","ECCENTRICITY":"0.00015380","EPOCH":"2023-04-30T08:49:39.216864","ELEMENT_SET_NO":"999","EPHEMERIS_TYPE":"0","COUNTRY_CODE":"US"},{"OBJECT_TYPE":"PAYLOAD","GP_ID":"230975199","MEAN_MOTION_DDOT":"0.0000000000000","APOAPSIS":"548.282","OBJECT_ID":"2021-017J","CLASSIFICATION_TYPE":"U","TLE_LINE1":"1 47730U 21017J   23120.56039552  .00010801  00000-0  74307-3 0  9999","LAUNCH_DATE":"2021-03-04","NORAD_CAT_ID":"47730","TIME_SYSTEM":"UTC","CENTER_NAME":"EARTH","FILE":"3897442","RA_OF_ASC_NODE":"223.9068","MEAN_MOTION":"15.06389800","REV_AT_EPOCH":"12028","TLE_LINE2":"2 47730  53.0540 223.9068 0001498  80.2350 279.8808 15.06389800120285","DECAY_DATE":null,"MEAN_MOTION_DOT":"0.00010801","MEAN_ELEMENT_THEORY":"SGP4","REF_FRAME":"TEME","RCS_SIZE":"LARGE","MEAN_ANOMALY":"279.8808","INCLINATION":"53.0540","PERIOD":"95.593","OBJECT_NAME":"STARLINK-2140","ARG_OF_PERICENTER":"80.2350","SITE":"AFETR","PERIAPSIS":"546.207","COUNTRY_CODE":"US","EPHEMERIS_TYPE":"0","EPOCH":"2023-04-30T13:26:58.172928","ELEMENT_SET_NO":"999","ECCENTRICITY":"0.00014980","SEMIMAJOR_AXIS":"6925.380","BSTAR":"0.00074307000000"}];
